GLOBALSTAR M001         
1 25162U 98008A   24291.13030189 -.00000026  00000+0  54279-3 0  9992
2 25162  52.0044 320.6560 0001776  99.6616 297.6752 12.38196603213714
GLOBALSTAR M004         
1 25163U 98008B   24290.90164625 -.00000068  00000+0  19949-3 0  9991
2 25163  51.9999  76.3443 0003914 108.8978  57.6534 12.63375842231036
GLOBALSTAR M002         
1 25164U 98008C   24290.88064608 -.00000114  00000+0 -74212-3 0  9996
2 25164  51.9991 130.2523 0002379  72.0624 288.0455 11.61504805155792
GLOBALSTAR M003         
1 25165U 98008D   24290.94826022  .00000045  00000+0  14301-2 0  9993
2 25165  51.9927 122.1813 0008341 158.7580 349.6549 12.12044937203729
GLOBALSTAR M014         
1 25306U 98023A   24290.91854378 -.00000069  00000+0  15977-3 0  9997
2 25306  51.9851  58.4940 0000304 213.1467 300.3562 11.65472920162801
GLOBALSTAR M006         
1 25307U 98023B   24291.20540631 -.00000059  00000+0  34320-3 0  9997
2 25307  51.9916 101.1614 0004196  40.6839 130.2529 11.58168572188782
GLOBALSTAR M015         
1 25308U 98023C   24290.87668312 -.00000022  00000+0  11749-2 0  9996
2 25308  51.9808 189.3038 0013071   6.9685  86.1853 11.48853551166116
GLOBALSTAR M008         
1 25309U 98023D   24290.83899796 -.00000011  00000+0  67132-3 0  9991
2 25309  51.9959 183.5756 0003231  34.2904  49.9469 12.36052409207759
